{"type": "FeatureCollection", "features": [ {"type": "Feature", "properties": {"norad_id": 66604, "name": "STARLINK-35977", "group": "last-30-days", "lat": -41.472707316802015, "lon": 127.59143068355563, "alt_km": 339.90247400135286, "timestamp": "2025-12-05T09:41:17.890126+00:00", "meta": {"OBJECT_NAME": "STARLINK-35977", "OBJECT_ID": "2025-270S", "EPOCH": "2025-12-03T11:01:46.597440", "MEAN_MOTION": 15.77554299, "ECCENTRICITY": 0.00039426, "INCLINATION": 42.9996, "RA_OF_ASC_NODE": 247.8966, "ARG_OF_PERICENTER": 347.7852, "MEAN_ANOMALY": 12.2922, "EPHEMERIS_TYPE": 0, "CLASSIFICATION_TYPE": "U", "NORAD_CAT_ID": 66604, "ELEMENT_SET_NO": 999, "REV_AT_EPOCH": 289, "BSTAR": 0.00071417663, "MEAN_MOTION_DOT": 0.00123952, "MEAN_MOTION_DDOT": 0}, "tle": {"line1": "1 66604U 25270S   25337.45956710  .00123952  00000+0  71418-3 0  9990", "line2": "2 66604  42.9996 247.8966 0003942 347.7852  12.2922 15.77554299  2890"}}, "geometry": {"type": "Point", "coordinates": [127.59143068355563, -41.472707316802015]}}, {"type": "Feature", "properties": {"norad_id": 66605, "name": "STARLINK-36052", "group": "last-30-days", "lat": -36.66134850303711, "lon": 109.11371580921583, "alt_km": 345.272037058543, "timestamp": "2025-12-05T09:41:17.890136+00:00", "meta": {"OBJECT_NAME": "STARLINK-36052", "OBJECT_ID": "2025-270T", "EPOCH": "2025-12-04T15:55:52.255200", "MEAN_MOTION": 15.75076035, "ECCENTRICITY": 0.0001567, "INCLINATION": 42.9979, "RA_OF_ASC_NODE": 240.5863, "ARG_OF_PERICENTER": 251.4453, "MEAN_ANOMALY": 108.6246, "EPHEMERIS_TYPE": 0, "CLASSIFICATION_TYPE": "U", "NORAD_CAT_ID": 66605, "ELEMENT_SET_NO": 999, "REV_AT_EPOCH": 308, "BSTAR": 0.0019002, "MEAN_MOTION_DOT": 0.00302617, "MEAN_MOTION_DDOT": 0}, "tle": {"line1": "1 66605U 25270T   25338.66379925  .00302617  00000+0  19002-2 0  9999", "line2": "2 66605  42.9979 240.5863 0001567 251.4453 108.6246 15.75076035  3083"}}, "geometry": {"type": "Point", "coordinates": [109.11371580921583, -36.66134850303711]}}, {"type": "Feature", "properties": {"norad_id": 66606, "name": "STARLINK-36063", "group": "last-30-days", "lat": -4.773611950252309, "lon": 61.393335420486714, "alt_km": 361.9873846641185, "timestamp": "2025-12-05T09:41:17.890146+00:00", "meta": {"OBJECT_NAME": "STARLINK-36063", "OBJECT_ID": "2025-270U", "EPOCH": "2025-12-04T02:13:26.401152", "MEAN_MOTION": 15.70932101, "ECCENTRICITY": 0.0031868, "INCLINATION": 42.9978, "RA_OF_ASC_NODE": 244.043, "ARG_OF_PERICENTER": 182.8429, "MEAN_ANOMALY": 177.2262, "EPHEMERIS_TYPE": 0, "CLASSIFICATION_TYPE": "U", "NORAD_CAT_ID": 66606, "ELEMENT_SET_NO": 999, "REV_AT_EPOCH": 299, "BSTAR": -0.056770882, "MEAN_MOTION_DOT": -0.06178149, "MEAN_MOTION_DDOT": 0}, "tle": {"line1": "1 66606U 25270U   25338.09266668 -.06178149  00000+0 -56771-1 0  9998", "line2": "2 66606  42.9978 244.0430 0031868 182.8429 177.2262 15.70932101  2998"}}, "geometry": {"type": "Point", "coordinates": [61.393335420486714, -4.773611950252309]}}, {"type": "Feature", "properties": {"norad_id": 66607, "name": "STARLINK-35993", "group": "last-30-days", "lat": -37.9687935115079, "lon": 112.96990670101768, "alt_km": 341.8933958733942, "timestamp": "2025-12-05T09:41:17.890161+00:00", "meta": {"OBJECT_NAME": "STARLINK-35993", "OBJECT_ID": "2025-270V", "EPOCH": "2025-12-04T15:55:23.305152", "MEAN_MOTION": 15.75375803, "ECCENTRICITY": 0.0003446, "INCLINATION": 42.9976, "RA_OF_ASC_NODE": 240.583, "ARG_OF_PERICENTER": 229.2511, "MEAN_ANOMALY": 130.806, "EPHEMERIS_TYPE": 0, "CLASSIFICATION_TYPE": "U", "NORAD_CAT_ID": 66607, "ELEMENT_SET_NO": 999, "REV_AT_EPOCH": 298, "BSTAR": 0.003922, "MEAN_MOTION_DOT": 0.0066123, "MEAN_MOTION_DDOT": 0}, "tle": {"line1": "1 66607U 25270V   25338.66346418  .00661230  00000+0  39220-2 0  9995", "line2": "2 66607  42.9976 240.5830 0003446 229.2511 130.8060 15.75375803  2986"}}, "geometry": {"type": "Point", "coordinates": [112.96990670101768, -37.9687935115079]}}, {"type": "Feature", "properties": {"norad_id": 66608, "name": "STARLINK-36036", "group": "last-30-days", "lat": -39.18124783082373, "lon": 117.08529492903614, "alt_km": 342.8854879952105, "timestamp": "2025-12-05T09:41:17.890171+00:00", "meta": {"OBJECT_NAME": "STARLINK-36036", "OBJECT_ID": "2025-270W", "EPOCH": "2025-12-04T15:54:24.886656", "MEAN_MOTION": 15.75250644, "ECCENTRICITY": 0.0002719, "INCLINATION": 42.9983, "RA_OF_ASC_NODE": 240.5751, "ARG_OF_PERICENTER": 235.086, "MEAN_ANOMALY": 124.9754, "EPHEMERIS_TYPE": 0, "CLASSIFICATION_TYPE": "U", "NORAD_CAT_ID": 66608, "ELEMENT_SET_NO": 999, "REV_AT_EPOCH": 292, "BSTAR": 0.0037615, "MEAN_MOTION_DOT": 0.0062822, "MEAN_MOTION_DDOT": 0}, "tle": {"line1": "1 66608U 25270W   25338.66278804  .00628220  00000+0  37615-2 0  9997", "line2": "2 66608  42.9983 240.5751 0002719 235.0860 124.9754 15.75250644  2924"}}, "geometry": {"type": "Point", "coordinates": [117.08529492903614, -39.18124783082373]}}, {"type": "Feature", "properties": {"norad_id": 66609, "name": "STARLINK-36034", "group": "last-30-days", "lat": -41.21401121534764, "lon": 126.11064244268069, "alt_km": 336.48825760316413, "timestamp": "2025-12-05T09:41:17.890183+00:00", "meta": {"OBJECT_NAME": "STARLINK-36034", "OBJECT_ID": "2025-270X", "EPOCH": "2025-12-04T15:53:27.072096", "MEAN_MOTION": 15.76402472, "ECCENTRICITY": 0.0006434, "INCLINATION": 42.998, "RA_OF_ASC_NODE": 240.5714, "ARG_OF_PERICENTER": 250.7584, "MEAN_ANOMALY": 109.2589, "EPHEMERIS_TYPE": 0, "CLASSIFICATION_TYPE": "U", "NORAD_CAT_ID": 66609, "ELEMENT_SET_NO": 999, "REV_AT_EPOCH": 292, "BSTAR": 0.0046786, "MEAN_MOTION_DOT": 0.00843446, "MEAN_MOTION_DDOT": 0}, "tle": {"line1": "1 66609U 25270X   25338.66211889  .00843446  00000+0  46786-2 0  9996", "line2": "2 66609  42.9980 240.5714 0006434 250.7584 109.2589 15.76402472  2927"}}, "geometry": {"type": "Point", "coordinates": [126.11064244268069, -41.21401121534764]}}, {"type": "Feature", "properties": {"norad_id": 66610, "name": "STARLINK-35680", "group": "last-30-days", "lat": -40.83246560844263, "lon": 124.10237182515792, "alt_km": 347.556099162176, "timestamp": "2025-12-05T09:41:17.890195+00:00", "meta": {"OBJECT_NAME": "STARLINK-35680", "OBJECT_ID": "2025-270Y", "EPOCH": "2025-12-04T17:23:46.029984", "MEAN_MOTION": 15.75190072, "ECCENTRICITY": 0.0002856, "INCLINATION": 42.9982, "RA_OF_ASC_NODE": 240.1819, "ARG_OF_PERICENTER": 292.234, "MEAN_ANOMALY": 67.8226, "EPHEMERIS_TYPE": 0, "CLASSIFICATION_TYPE": "U", "NORAD_CAT_ID": 66610, "ELEMENT_SET_NO": 999, "REV_AT_EPOCH": 320, "BSTAR": -0.0027493, "MEAN_MOTION_DOT": -0.00405961, "MEAN_MOTION_DDOT": 0}, "tle": {"line1": "1 66610U 25270Y   25338.72483831 -.00405961  00000+0 -27493-2 0  9995", "line2": "2 66610  42.9982 240.1819 0002856 292.2340  67.8226 15.75190072  3206"}}, "geometry": {"type": "Point", "coordinates": [124.10237182515792, -40.83246560844263]}}, {"type": "Feature", "properties": {"norad_id": 66611, "name": "STARLINK-35583", "group": "last-30-days", "lat": -40.82862316289388, "lon": 124.08381697822989, "alt_km": 343.287293948325, "timestamp": "2025-12-05T09:41:17.890205+00:00", "meta": {"OBJECT_NAME": "STARLINK-35583", "OBJECT_ID": "2025-270Z", "EPOCH": "2025-12-04T15:52:57.683136", "MEAN_MOTION": 15.75290299, "ECCENTRICITY": 0.0002707, "INCLINATION": 42.9979, "RA_OF_ASC_NODE": 240.5686, "ARG_OF_PERICENTER": 258.8911, "MEAN_ANOMALY": 101.1654, "EPHEMERIS_TYPE": 0, "CLASSIFICATION_TYPE": "U", "NORAD_CAT_ID": 66611, "ELEMENT_SET_NO": 999, "REV_AT_EPOCH": 319, "BSTAR": 0.0031127, "MEAN_MOTION_DOT": 0.00513526, "MEAN_MOTION_DDOT": 0}, "tle": {"line1": "1 66611U 25270Z   25338.66177874  .00513526  00000+0  31127-2 0  9990", "line2": "2 66611  42.9979 240.5686 0002707 258.8911 101.1654 15.75290299  3193"}}, "geometry": {"type": "Point", "coordinates": [124.08381697822989, -40.82862316289388]}}, {"type": "Feature", "properties": {"norad_id": 66612, "name": "STARLINK-36039", "group": "last-30-days", "lat": -41.99664360433343, "lon": 131.11662471145533, "alt_km": 344.0978498550494, "timestamp": "2025-12-05T09:41:17.890216+00:00", "meta": {"OBJECT_NAME": "STARLINK-36039", "OBJECT_ID": "2025-270AA", "EPOCH": "2025-12-04T17:22:49.247904", "MEAN_MOTION": 15.75226148, "ECCENTRICITY": 0.0002334, "INCLINATION": 42.9979, "RA_OF_ASC_NODE": 240.1763, "ARG_OF_PERICENTER": 219.2199, "MEAN_ANOMALY": 140.8501, "EPHEMERIS_TYPE": 0, "CLASSIFICATION_TYPE": "U", "NORAD_CAT_ID": 66612, "ELEMENT_SET_NO": 999, "REV_AT_EPOCH": 309, "BSTAR": 0.0031974, "MEAN_MOTION_DOT": 0.00526889, "MEAN_MOTION_DDOT": 0}, "tle": {"line1": "1 66612U 25270AA  25338.72418111  .00526889  00000+0  31974-2 0  9996", "line2": "2 66612  42.9979 240.1763 0002334 219.2199 140.8501 15.75226148  3093"}}, "geometry": {"type": "Point", "coordinates": [131.11662471145533, -41.99664360433343]}}, {"type": "Feature", "properties": {"norad_id": 66613, "name": "STARLINK-36037", "group": "last-30-days", "lat": -42.91168085203587, "lon": 149.9445632086876, "alt_km": 339.6786863485004, "timestamp": "2025-12-05T09:41:17.890227+00:00", "meta": {"OBJECT_NAME": "STARLINK-36037", "OBJECT_ID": "2025-270AB", "EPOCH": "2025-12-03T10:57:19.045152", "MEAN_MOTION": 15.77412165, "ECCENTRICITY": 0.0004122, "INCLINATION": 43.0001, "RA_OF_ASC_NODE": 247.8703, "ARG_OF_PERICENTER": 349.4174, "MEAN_ANOMALY": 10.6608, "EPHEMERIS_TYPE": 0, "CLASSIFICATION_TYPE": "U", "NORAD_CAT_ID": 66613, "ELEMENT_SET_NO": 999, "REV_AT_EPOCH": 289, "BSTAR": 0.00072767216, "MEAN_MOTION_DOT": 0.00125531, "MEAN_MOTION_DDOT": 0}, "tle": {"line1": "1 66613U 25270AB  25337.45647043  .00125531  00000+0  72767-3 0  9999", "line2": "2 66613  43.0001 247.8703 0004122 349.4174  10.6608 15.77412165  2893"}}, "geometry": {"type": "Point", "coordinates": [149.9445632086876, -42.91168085203587]}}]}